NORAD_CAT_ID,OBJECT_NAME,OBJECT_TYPE,EPOCH,MEAN_MOTION,ECCENTRICITY,INCLINATION,RA_OF_ASC_NODE,ARG_OF_PERICENTER,MEAN_ANOMALY,BSTAR,MEAN_MOTION_DOT,MEAN_MOTION_DDOT,TLE_LINE0,TLE_LINE1,TLE_LINE2,SEMIMAJOR_AXIS,PERIOD,APOGEE,PERIGEE,DECAYED
52705.0,STARLINK-3844,PAYLOAD,2024-02-07 21:52:01,15.08835831,0.0001439,53.2175,309.3815,105.7475,254.3676,-7.7726e-05,-1.525e-05,0.0,0 STARLINK-3844,1 52705U 22053BB  24038.91112690 -.00001525  00000-0 -77726-4 0  9995,2 52705  53.2175 309.3815 0001439 105.7475 254.3676 15.08835831 96469,6917.893,95.438,540.754,538.763,0.0
52705.0,STARLINK-3844,PAYLOAD,2024-02-08 01:02:47,15.08836688,0.0001416,53.2182,308.7988,107.5412,252.5735,-6.9792e-05,-1.398e-05,0.0,0 STARLINK-3844,1 52705U 22053BB  24039.04360713 -.00001398  00000-0 -69792-4 0  9993,2 52705  53.2182 308.7988 0001416 107.5412 252.5735 15.08836688 96059,6917.891,95.438,540.735,538.776,0.0
52705.0,STARLINK-3844,PAYLOAD,2024-02-08 21:42:48,15.08837147,0.000137,53.2184,304.9317,108.6068,251.5073,-2.573e-05,-6.97e-06,0.0,0 STARLINK-3844,1 52705U 22053BB  24039.90473014 -.00000697  00000-0 -25730-4 0  9992,2 52705  53.2184 304.9317 0001370 108.6068 251.5073 15.08837147 96610,6917.889,95.438,540.702,538.806,0.0
52705.0,STARLINK-3844,PAYLOAD,2024-02-09 00:53:34,15.08842126,0.0001334,53.2183,304.3373,106.9183,253.1955,2.5304e-05,1.15e-06,0.0,0 STARLINK-3844,1 52705U 22053BB  24040.03720582  .00000115  00000-0  25304-4 0  9993,2 52705  53.2183 304.3373 0001334 106.9183 253.1955 15.08842126 96209,6917.874,95.437,540.662,538.816,0.0
52705.0,STARLINK-3844,PAYLOAD,2024-02-10 00:44:22,15.08841433,0.0001545,53.2192,299.8752,75.6151,284.5012,4.7063e-05,4.61e-06,0.0,0 STARLINK-3844,1 52705U 22053BB  24041.03081136  .00000461  00000-0  47063-4 0  9999,2 52705  53.2192 299.8752 0001545  75.6151 284.5012 15.08841433 96357,6917.876,95.437,540.81,538.672,0.0
52705.0,STARLINK-3844,PAYLOAD,2024-02-10 22:59:46,15.08826443,0.0001704,53.2183,295.7122,61.8977,298.2187,0.00025129,3.712e-05,0.0,0 STARLINK-3844,1 52705U 22053BB  24041.95817681  .00003712  00000-0  25129-3 0  9992,2 52705  53.2183 295.7122 0001704  61.8977 298.2187 15.08826443 96925,6917.922,95.438,540.966,538.608,0.0
52705.0,STARLINK-3844,PAYLOAD,2024-02-11 02:10:31,15.08849435,0.0001433,53.2179,295.1141,79.8481,280.2673,0.00010151,1.328e-05,0.0,0 STARLINK-3844,1 52705U 22053BB  24042.09064582  .00001328  00000-0  10151-3 0  9992,2 52705  53.2179 295.1141 0001433  79.8481 280.2673 15.08849435 96515,6917.852,95.437,540.708,538.725,0.0
52705.0,STARLINK-3844,PAYLOAD,2024-02-11 21:15:09,15.08848736,0.0001386,53.2173,291.5452,92.0468,268.0683,2.8466e-05,1.65e-06,0.0,0 STARLINK-3844,1 52705U 22053BB  24042.88552629  .00000165  00000-0  28466-4 0  9990,2 52705  53.2173 291.5452 0001386  92.0468 268.0683 15.08848736 97062,6917.854,95.437,540.678,538.76,0.0
52705.0,STARLINK-3844,PAYLOAD,2024-02-11 22:50:32,15.08849925,0.0001598,53.2181,291.2456,75.8916,284.2253,4.628e-05,4.49e-06,0.0,0 STARLINK-3844,1 52705U 22053BB  24042.95176522  .00000449  00000-0  46280-4 0  9991,2 52705  53.2181 291.2456 0001598  75.8916 284.2253 15.08849925 96641,6917.85,95.437,540.821,538.61,0.0
52705.0,STARLINK-3844,PAYLOAD,2024-02-12 19:30:33,15.08843332,0.0001268,53.2173,287.3812,105.2687,254.8445,-2.254e-05,-6.47e-06,0.0,0 STARLINK-3844,1 52705U 22053BB  24043.81289004 -.00000647  00000-0 -22540-4 0  9992,2 52705  53.2173 287.3812 0001268 105.2687 254.8445 15.08843332 96777,6917.87,95.437,540.612,538.858,0.0
52705.0,STARLINK-3844,PAYLOAD,2024-02-12 22:41:19,15.08843073,0.0001318,53.2172,286.7866,103.595,256.5189,-2.662e-05,-7.12e-06,0.0,0 STARLINK-3844,1 52705U 22053BB  24043.94536942 -.00000712  00000-0 -26620-4 0  9998,2 52705  53.2172 286.7866 0001318 103.5950 256.5189 15.08843073 97225,6917.871,95.437,540.648,538.824,0.0
52705.0,STARLINK-3844,PAYLOAD,2024-02-13 20:56:45,15.08834385,0.0001212,53.2172,282.6245,62.9064,297.2052,-0.00011745,-2.156e-05,0.0,0 STARLINK-3844,1 52705U 22053BB  24044.87274334 -.00002156  00000-0 -11745-3 0  9990,2 52705  53.2172 282.6245 0001212  62.9064 297.2052 15.08834385 96932,6917.898,95.438,540.601,538.924,0.0
52705.0,STARLINK-3844,PAYLOAD,2024-02-13 22:32:08,15.08826906,0.0001204,53.2175,282.3299,101.8988,258.2139,-4.4835e-05,-1.001e-05,0.0,0 STARLINK-3844,1 52705U 22053BB  24044.93898519 -.00001001  00000-0 -44835-4 0  9999,2 52705  53.2175 282.3299 0001204 101.8988 258.2139 15.08826906 97372,6917.92,95.438,540.618,538.952,0.0
52705.0,STARLINK-3844,PAYLOAD,2024-02-14 01:42:54,15.0883517,9.67e-05,53.217,281.7318,100.6019,259.5083,-0.00014016,-2.517e-05,0.0,0 STARLINK-3844,1 52705U 22053BB  24045.07146236 -.00002517  00000-0 -14016-3 0  9997,2 52705  53.2170 281.7318 0000967 100.6019 259.5083 15.08835170 97396,6917.895,95.438,540.429,539.091,0.0
52705.0,STARLINK-3844,PAYLOAD,2024-02-14 22:22:54,15.08836354,7.87e-05,53.2167,277.8687,97.3274,262.7807,0.00010501,1.384e-05,0.0,0 STARLINK-3844,1 52705U 22053BB  24045.93257884  .00001384  00000-0  10501-3 0  9998,2 52705  53.2167 277.8687 0000787  97.3274 262.7807 15.08836354 97522,6917.892,95.438,540.301,539.212,0.0
52705.0,STARLINK-3844,PAYLOAD,2024-02-15 07:55:13,15.08845036,7.83e-05,53.217,276.0846,104.5042,255.6037,9.9857e-05,1.302e-05,0.0,0 STARLINK-3844,1 52705U 22053BB  24046.33001348  .00001302  00000-0  99857-4 0  9997,2 52705  53.2170 276.0846 0000783 104.5042 255.6037 15.08845036 97156,6917.865,95.437,540.272,539.188,0.0
52705.0,STARLINK-3844,PAYLOAD,2024-02-15 19:02:56,15.08832227,0.0001008,53.2195,274.0071,111.1001,249.0099,0.00014689,2.05e-05,0.0,0 STARLINK-3844,1 52705U 22053BB  24046.79370389  .00002050  00000-0  14689-3 0  9991,2 52705  53.2195 274.0071 0001008 111.1001 249.0099 15.08832227 97222,6917.904,95.438,540.466,539.072,0.0
52705.0,STARLINK-3844,PAYLOAD,2024-02-15 22:13:42,15.08832964,0.0001045,53.2186,273.411,107.9711,252.1395,0.00014453,2.013e-05,0.0,0 STARLINK-3844,1 52705U 22053BB  24046.92618357  .00002013  00000-0  14453-3 0  9994,2 52705  53.2186 273.4110 0001045 107.9711 252.1395 15.08832964 97672,6917.902,95.438,540.49,539.044,0.0
52705.0,STARLINK-3844,PAYLOAD,2024-02-16 07:46:00,15.08838542,0.0001028,53.2176,271.6238,95.3529,264.758,0.00012113,1.64e-05,0.0,0 STARLINK-3844,1 52705U 22053BB  24047.32362204  .00001640  00000-0  12113-3 0  9992,2 52705  53.2176 271.6238 0001028  95.3529 264.7580 15.08838542 97730,6917.885,95.438,540.461,539.039,0.0
52705.0,STARLINK-3844,PAYLOAD,2024-02-16 18:53:42,15.08844633,8.63e-05,53.2168,269.5411,87.0719,273.0371,2.5253e-05,1.14e-06,0.0,0 STARLINK-3844,1 52705U 22053BB  24047.78730001  .00000114  00000-0  25253-4 0  9991,2 52705  53.2168 269.5411 0000863  87.0719 273.0371 15.08844633 97374,6917.866,95.437,540.328,539.134,0.0
52705.0,STARLINK-3844,PAYLOAD,2024-02-16 22:04:28,15.08848353,8.95e-05,53.2171,268.9465,84.2732,275.8363,4.6622e-05,4.55e-06,0.0,0 STARLINK-3844,1 52705U 22053BB  24047.91977674  .00000455  00000-0  46622-4 0  9996,2 52705  53.2171 268.9465 0000895  84.2732 275.8363 15.08848353 97823,6917.855,95.437,540.339,539.101,0.0
52705.0,STARLINK-3844,PAYLOAD,2024-02-17 01:15:14,15.08851576,9.24e-05,53.217,268.3518,87.0278,273.082,7.6621e-05,9.32e-06,0.0,0 STARLINK-3844,1 52705U 22053BB  24048.05225305  .00000932  00000-0  76621-4 0  9991,2 52705  53.2170 268.3518 0000924  87.0278 273.0820 15.08851576 97418,6917.845,95.437,540.349,539.071,0.0
52705.0,STARLINK-3844,PAYLOAD,2024-02-17 07:36:47,15.08844685,9.22e-05,53.2167,267.1602,84.0086,276.1011,1.2802e-06,-2.67e-06,0.0,0 STARLINK-3844,1 52705U 22053BB  24048.31721837 -.00000267  00000-0  12802-5 0  9995,2 52705  53.2167 267.1602 0000922  84.0086 276.1011 15.08844685 97450,6917.866,95.437,540.369,539.093,0.0
52705.0,STARLINK-3844,PAYLOAD,2024-02-17 21:55:15,15.08842874,0.000105,53.2169,264.4833,95.4489,264.6623,4.0693e-05,3.6e-06,0.0,0 STARLINK-3844,1 52705U 22053BB  24048.91337738  .00000360  00000-0  40693-4 0  9995,2 52705  53.2169 264.4833 0001050  95.4489 264.6623 15.08842874 97970,6917.872,95.437,540.463,539.01,0.0
52705.0,STARLINK-3844,PAYLOAD,2024-02-18 07:27:34,15.0884319,0.0001028,53.2169,262.7005,82.7277,277.3832,1.2019e-05,-9.6e-07,0.0,0 STARLINK-3844,1 52705U 22053BB  24049.31081774 -.00000096  00000-0  12019-4 0  9994,2 52705  53.2169 262.7005 0001028  82.7277 277.3832 15.08843190 98034,6917.871,95.437,540.447,539.024,0.0
52705.0,STARLINK-3844,PAYLOAD,2024-02-18 20:10:39,15.08841234,0.0001002,53.2162,260.3221,85.401,274.7097,2.6182e-05,1.29e-06,0.0,0 STARLINK-3844,1 52705U 22053BB  24049.84073786  .00000129  00000-0  26182-4 0  9998,2 52705  53.2162 260.3221 0001002  85.4010 274.7097 15.08841234 97689,6917.877,95.437,540.435,539.048,0.0
52705.0,STARLINK-3844,PAYLOAD,2024-02-19 07:18:21,15.08839862,9.25e-05,53.2154,258.2388,100.891,259.2187,-4.3759e-05,-9.84e-06,0.0,0 STARLINK-3844,1 52705U 22053BB  24050.30441926 -.00000984  00000-0 -43759-4 0  9996,2 52705  53.2154 258.2388 0000925 100.8910 259.2187 15.08839862 98182,6917.881,95.438,540.386,539.106,0.0
52705.0,STARLINK-3844,PAYLOAD,2024-02-19 20:01:27,15.08832862,9.18e-05,53.2156,255.8602,88.978,271.1317,1.367e-06,-2.66e-06,0.0,0 STARLINK-3844,1 52705U 22053BB  24050.83434395 -.00000266  00000-0  13670-5 0  9998,2 52705  53.2156 255.8602 0000918  88.9780 271.1317 15.08832862 97831,6917.902,95.438,540.402,539.132,0.0
52705.0,STARLINK-3844,PAYLOAD,2024-02-20 07:09:08,15.08839662,0.000113,53.2176,253.7779,94.2678,265.8443,3.2843e-05,2.35e-06,0.0,0 STARLINK-3844,1 52705U 22053BB  24051.29801908  .00000235  00000-0  32843-4 0  9994,2 52705  53.2176 253.7779 0001130  94.2678 265.8443 15.08839662 97901,6917.881,95.438,540.528,538.965,0.0
52705.0,STARLINK-3844,PAYLOAD,2024-02-20 19:52:13,15.08848017,0.0001126,53.2166,251.4,85.9586,274.1535,9.0765e-05,1.157e-05,0.0,0 STARLINK-3844,1 52705U 22053BB  24051.82793126  .00001157  00000-0  90765-4 0  9996,2 52705  53.2166 251.4000 0001126  85.9586 274.1535 15.08848017 97989,6917.856,95.437,540.5,538.942,0.0
